ONEWEB-0668             
1 56711U 23068B   24268.52986150  .00000199  00000+0  48612-3 0  9999
2 56711  87.9161 354.3742 0002171  85.0400 275.0979 13.16595986 68792
ONEWEB-0676             
1 56712U 23068C   24268.51008427  .00000061  00000+0  12726-3 0  9996
2 56712  87.9170 354.3909 0001470 114.0536 246.0749 13.16594922 68716
ONEWEB-0677             
1 56713U 23068D   24268.81449269  .00000017  00000+0  10178-4 0  9994
2 56713  87.9245  39.8467 0001523  92.8040 267.3267 13.20770890 67294
ONEWEB-0678             
1 56714U 23068E   24268.56869856  .00000862  00000+0  22559-2 0  9997
2 56714  87.9157  24.6654 0002648 111.2799 248.8614 13.15537507 66371
ONEWEB-0679             
1 56715U 23068F   24268.47919681  .00000125  00000+0  29393-3 0  9996
2 56715  87.9167 354.3975 0001520  81.4186 278.7117 13.16597328 68738
ONEWEB-0680             
1 56716U 23068G   24268.69757927  .00000033  00000+0  49579-4 0  9991
2 56716  87.9365   9.5636 0002103  79.5801 280.5570 13.21827922 68503
ONEWEB-0681             
1 56717U 23068H   24268.55642887  .00000129  00000+0  28118-3 0  9996
2 56717  87.9364   9.5700 0000849 112.7764 247.3459 13.21823629 67773
ONEWEB-0682             
1 56718U 23068J   24268.36665417  .00000000  00000+0 -32720-4 0  9994
2 56718  87.9109  24.7412 0001851  82.2328 277.9013 13.15546985 66517
